42809,IRIDIUM 126,2017,100.4,860.0,+,86.4,Active,1,LEO,USA,USA,Commercial/Government,Communications,Falcon,1 42809U 17039G   24056.55424796  .00000076  00000+0  20059-4 0  9994,2 42809  86.4026 345.7891 0001900  79.8308 280.3102 14.34216513349173,14.34216513,0.00019,LEO
42810,IRIDIUM 124,2017,99.77,860.0,+,86.45,Active,1,LEO,USA,USA,Commercial/Government,Communications,Falcon,1 42810U 17039H   24056.61336831  .00000578  00000+0  16582-3 0  9997,2 42810  86.4455 282.5058 0002272  90.6794 269.4668 14.43275133353585,14.43275133,0.0002272,LEO
42811,IRIDIUM 128,2017,100.4,860.0,+,86.4,Active,1,LEO,USA,USA,Commercial/Government,Communications,Falcon,1 42811U 17039J   24056.61475316  .00000041  00000+0  75591-5 0  9992,2 42811  86.4001  17.2609 0002055  91.4589 268.6842 14.34217728349214,14.34217728,0.0002055,LEO
42812,IRIDIUM 121,2017,100.4,860.0,+,86.4,Active,1,LEO,USA,USA,Commercial/Government,Communications,Falcon,1 42812U 17039K   24056.50350642  .00000152  00000+0  47230-4 0  9996,2 42812  86.4027 345.8325 0002158  84.4787 275.6655 14.34218269349046,14.34218269,0.0002158,LEO
42955,IRIDIUM 133,2017,100.4,860.0,+,86.4,Active,1,LEO,USA,USA,Commercial/Government,Communications,Falcon,1 42955U 17061A   24056.43716072  .00000128  00000+0  38544-4 0  9995,2 42955  86.4003  17.4321 0002136  85.0305 275.1135 14.34218164333983,14.34218164,0.0002136,LEO
42956,IRIDIUM 100,2017,100.4,860.0,+,86.4,Active,1,LEO,USA,USA,Commercial/Government,Communications,Falcon,1 42956U 17061B   24056.43081769  .00000124  00000+0  37126-4 0  9995,2 42956  86.4002  17.3732 0002062  89.2242 270.9190 14.34216679333985,14.34216679,0.0002062,LEO
42957,IRIDIUM 122,2017,100.4,860.0,+,86.4,Active,1,LEO,USA,USA,Commercial/Government,Communications,Falcon,1 42957U 17061C   24056.60841002  .00000701  00000+0  24316-3 0  9996,2 42957  86.4002  17.2970 0002145  90.0497 270.0945 14.34217530334014,14.3421753,0.0002145,LEO
42958,IRIDIUM 129,2017,100.4,860.0,+,86.4,Active,1,LEO,USA,USA,Commercial/Government,Communications,Falcon,1 42958U 17061D   24056.42447565  .00000105  00000+0  30553-4 0  9992,2 42958  86.4003  17.4319 0002035  88.6851 271.4578 14.34217630334007,14.3421763,0.0002035,LEO
